GSAT0101 (PRN E11)      
1 37846U 11060A   23314.16743685 -.00000079  00000+0  00000+0 0  9994
2 37846  57.1151   7.4898 0001035 315.3273  44.7292  1.70476029 74925
GSAT0102 (PRN E12)      
1 37847U 11060B   23313.50300118 -.00000082  00000+0  00000+0 0  9996
2 37847  57.1160   7.5079 0003045 298.7297  59.6798  1.70475459 74912
GSAT0103 (PRN E19)      
1 38857U 12055A   23314.79311562  .00000094  00000+0  00000+0 0  9992
2 38857  55.3117 127.6373 0002146 237.0379 122.9790  1.70473696 68825
GSAT0104 (PRN E20)      
1 38858U 12055B   23313.58931441  .00000091  00000+0  00000+0 0  9990
2 38858  55.3115 127.6720 0001479 146.8851 213.1659  1.70473960 68809
GSAT0201 (PRN E18)      
1 40128U 14050A   23315.25625624 -.00000063  00000+0  00000+0 0  9999
2 40128  49.8745 311.8482 1606664 142.9400 229.3361  1.85519592 62650
GSAT0202 (PRN E14)      
1 40129U 14050B   23313.35942887 -.00000064  00000+0  00000+0 0  9993
2 40129  49.8949 310.9970 1604782 143.6789 228.3830  1.85520292 62846
GSAT0203 (PRN E26)      
1 40544U 15017A   23312.18696989 -.00000088  00000+0  00000+0 0  9993
2 40544  56.9116   7.5076 0003023 235.6671 124.3633  1.70476374 52974
GSAT0204 (PRN E22)      
1 40545U 15017B   23315.37374176 -.00000075  00000+0  00000+0 0  9995
2 40545  56.9171   7.4354 0004992 237.8200 122.1994  1.70475746 53690
GSAT0205 (PRN E24)      
1 40889U 15045A   23314.55530668 -.00000017  00000+0  00000+0 0  9992
2 40889  55.3286 247.8409 0005058  19.1350 340.8758  1.70472969 50826
GSAT0206 (PRN E30)      
1 40890U 15045B   23314.18937101 -.00000018  00000+0  00000+0 0  9997
2 40890  55.3268 247.8465 0003241   3.1002 356.8928  1.70473087 50849
GSAT0209 (PRN E09)      
1 41174U 15079A   23314.94719135  .00000094  00000+0  00000+0 0  9992
2 41174  55.3297 127.3406 0001697 345.3533  14.6780  1.70474395 49179
GSAT0208 (PRN E08)      
1 41175U 15079B   23314.58025805  .00000093  00000+0  00000+0 0  9996
2 41175  55.3280 127.3487 0001056   2.1528 357.8854  1.70474345 49160
GSAT0211 (PRN E02)      
1 41549U 16030A   23312.94188574 -.00000023  00000+0  00000+0 0  9994
2 41549  55.4753 247.8683 0004060 334.1420  25.8275  1.70473081 46458
GSAT0210 (PRN E01)      
1 41550U 16030B   23313.81990189 -.00000020  00000+0  00000+0 0  9993
2 41550  55.4741 247.8453 0003179 301.5773  58.3820  1.70473386 46467
GSAT0207 (PRN E07)      
1 41859U 16069A   23314.65440722  .00000092  00000+0  00000+0 0  9991
2 41859  54.9931 127.4040 0001526 306.1465  53.8771  1.70474406 43211
GSAT0212 (PRN E03)      
1 41860U 16069B   23313.92240736  .00000091  00000+0  00000+0 0  9994
2 41860  54.9904 127.4212 0001606  35.7818 324.2693  1.70474627 43459
GSAT0213 (PRN E04)      
1 41861U 16069C   23315.46215665  .00000093  00000+0  00000+0 0  9991
2 41861  54.9932 127.3846 0001844 251.2244 108.7893  1.70473208 43478
GSAT0214 (PRN E05)      
1 41862U 16069D   23312.67651073  .00000086  00000+0  00000+0 0  9991
2 41862  54.9904 127.4558 0000877 241.6581 118.3754  1.70473689 43422
GSAT0215 (PRN E21)      
1 43055U 17079A   23313.75157485 -.00000020  00000+0  00000+0 0  9996
2 43055  55.4511 247.6711 0002630 295.7997  64.1637  1.70473767 36780
GSAT0216 (PRN E25)      
1 43056U 17079B   23314.63003064 -.00000016  00000+0  00000+0 0  9993
2 43056  55.4511 247.6467 0004170 294.2835  65.6653  1.70473884 36789
GSAT0217 (PRN E27)      
1 43057U 17079C   23313.09064837 -.00000022  00000+0  00000+0 0  9995
2 43057  55.4500 247.6880 0004024 306.4471  53.5059  1.70473888 36776
GSAT0218 (PRN E31)      
1 43058U 17079D   23313.31069889 -.00000021  00000+0  00000+0 0  9992
2 43058  55.4502 247.6795 0004558 288.5156  71.4250  1.70473866 36808
GSAT0221 (PRN E15)      
1 43564U 18060A   23314.97022078 -.00000076  00000+0  00000+0 0  9997
2 43564  57.2912   7.3771 0005050 264.7115  95.2982  1.70476171 32993
GSAT0222 (PRN E33)      
1 43565U 18060B   23311.66887566 -.00000090  00000+0  00000+0 0  9998
2 43565  57.2943   7.4674 0004809 233.8508 126.1630  1.70476135 32977
GSAT0219 (PRN E36)      
1 43566U 18060C   23315.41063871 -.00000074  00000+0  00000+0 0  9993
2 43566  57.2937   7.3684 0004038 267.9930  92.0292  1.70476185 33018
GSAT0220 (PRN E13)      
1 43567U 18060D   23314.45792479 -.00000078  00000+0  00000+0 0  9994
2 43567  57.2934   7.3950 0004679 267.6058  92.4065  1.70476127 32984
GSAT0223 (PRN E34)      
1 49809U 21116A   23313.14636910 -.00000083  00000+0  00000+0 0  9993
2 49809  57.2847   7.3258 0003768 220.0156 145.3869  1.70476417 11971
GSAT0224 (PRN E10)      
1 49810U 21116B   23312.36687587 -.00000087  00000+0  00000+0 0  9998
2 49810  57.2857   7.3450 0002695 210.4403 149.0623  1.70476479 11971
